#dP2024  6 17  6  0  0.00000000      96 __u+U IGS20 EXT  IAC
## 2319 108000.00000000   900.00000000 60478 0.2500000000000
+   54   G02G03G04G05G06G07G08G09G10G11G12G13G14G15G16G17G18
+        G19G20G21G22G23G24G25G26G27G28G29G30G31G32R01R02R03
+        R04R05R07R08R09R11R12R13R14R15R16R17R18R19R20R21R22
+        R24R25R26  0  0  0  0  0  0  0  0  0  0  0  0  0  0
+          0  0  0  0  0  0  0  0  0  0  0  0  0  0  0  0  0
++         8  7  8  8  8  8  8  8  9  9  9  9  8  9  9  9  9
++         8 10  7  8  8  9  8  8  7  8 10  7  8  8  7  9  8
++         9  8  8  8  9  8  8  9  7  8  8  8  8  8 10  8  9
++         8  8  8  0  0  0  0  0  0  0  0  0  0  0  0  0  0
++         0  0  0  0  0  0  0  0  0  0  0  0  0  0  0  0  0
%c M  cc GPS ccc cccc cccc cccc cccc ccccc ccccc ccccc ccccc
%c cc cc ccc ccc cccc cccc cccc cccc ccccc ccccc ccccc ccccc
%f  0.0000000  0.000000000  0.00000000000  0.000000000000000
%f  0.0000000  0.000000000  0.00000000000  0.000000000000000
%i    0    0    0    0      0      0      0      0         0
%i    0    0    0    0      0      0      0      0         0
/* IAC                                ULTRA-RAPID PREDICTION
/* S/V CLOCKS ARE ALIGNED TO GNSS TIME                      
/* G:C1WC2W R:C1PC2P E:C1XC5X C:C2IC6I J:C1CC2S             
/* PCV:IGS20_2317 OL/AL:FES2004  NONE     YN ORB:CoN CLK:CoN
*  2024 06 17 20  0  0.00000000
PG02  -8162.565763  18601.905145 -16475.042109   -415.866977
PG03   5500.002874  18274.770090 -18684.802069    418.130908
PG04   -961.635266  26421.390198   1610.428146    385.296316
PG05  10478.890285 -10997.690612  21613.541589   -176.668571
PG06  23711.581511  -3422.891269 -11525.041606    212.958302
PG07  11671.073951  11330.165062  21578.580911    -90.422901
PG08  -6740.574065  23715.704610   9182.461087    234.420340
PG09   8350.742228  21831.107321  12481.206993    238.576912
PG10 -23825.555519  -9983.603862  -6662.346100    -45.080046
PG11  23569.990785 -12078.592212   1578.670821   -687.523823
PG12  -1824.789138 -18243.913343 -19514.589557   -514.932022
PG13  13328.583335 -17540.211598  14452.680389    658.610131
PG14  23197.216336  12756.545751  -3257.406663    427.798512
PG15   3621.631694 -24609.085457   8535.559432    171.244295
PG16 -14621.522274   7037.295419  20775.905328   -261.538445
PG17  13157.048633   9651.988638 -20505.093375    693.054833
PG18 -11840.854855 -10368.294274  21436.221646   -626.173564
PG19  15241.347032     15.399172 -21901.777489    497.833961
PG20  18844.486478  -5857.493111  17770.590221    373.732836
PG21 -12628.733561  18679.380917 -12732.538097    114.808616
PG22  22577.819878   7908.114532 -10800.583581    -28.563887
PG23 -20652.212073 -16169.094161   4851.362493    252.705358
PG24   8999.544436 -19635.597588 -15604.700255   -478.342739
PG25 -12491.426083 -19284.112314 -13883.526284    497.473173
PG26 -23312.808720  -1552.905188  12814.247630    135.322825
PG27 -12633.200622  15094.389017  17338.032965    -28.550920
PG28 -22782.523794   1972.251312 -13519.146625   -293.219298
PG29  -4228.615800 -24017.114369  10321.387535   -593.770610
PG30  20593.122601   3240.185478  16756.871721   -372.635735
PG31 -24834.956825   9437.236820  -3536.321780   -227.336628
PG32 -14420.097478  -6949.994579 -21013.962160   -615.906649
PR01  12119.666462  20759.336501   8562.588863     88.701984
PR02  12613.080027   6841.070470  21118.724453    -23.327656
PR03   6794.600388 -11588.248404  21743.863427    102.261381
PR04  -2495.534974 -23086.183724  10600.998995    241.555961
PR05 -10411.161725 -22437.916220  -6260.923901    133.242624
PR07  -6421.264342  12211.056732 -21402.177756     84.775388
PR08   2840.449734  23154.340001 -10222.351777     -5.075494
PR09 -25200.624065  -3409.616962   1311.141852    192.771186
PR11  -2980.384879  10575.156921  23033.837808     21.098822
PR12  17081.192307  10835.987776  15562.871065     41.432580
PR13  24958.439642   5090.140540   1347.582207    -48.436173
PR14  18529.375185  -4949.960878 -16813.215948     26.605119
PR15   1296.978360 -11000.484782 -22953.200993     78.715882
PR16 -16964.772527 -10685.265114 -15731.055505     26.576181
PR17  18027.871213 -17515.599071  -4207.055765     96.727784
PR18  10596.244676 -19856.214913  12057.974402    147.514969
PR19   -600.771776 -13372.710207  21704.831088   -280.689641
PR20 -15817.569751   3753.566383  19644.176459   -114.681468
PR21 -18248.304408  17266.632426   4501.741845   -110.092405
PR22 -10105.209869  19508.860614 -12930.119975    101.451066
PR24  16182.630158  -4680.491488 -19136.032675    -60.245558
PR25 -18707.431624  16919.238427   3882.012017    -63.313603
PR26   2220.834645  22682.894562 -11460.325394     -6.095158
*  2024 06 17 20 15  0.00000000
PG02  -9809.566869  19484.373986 -14466.354964   -415.860608
PG03   3588.342385  17226.775283 -20093.318151    418.146976
PG04  -1216.004194  26427.949623  -1261.840507    385.303572
PG05  12645.186998  -9801.018761  21035.012396   -176.669806
PG06  22497.491557  -2608.075789 -13903.705112    212.939137
PG07   9604.295578  12507.135812  21911.895743    -90.413860
PG08  -7044.119734  22499.296894  11687.404480    234.436577
PG09   8140.007409  23136.384742  10042.946217    238.590047
PG10 -24276.127448 -10437.707750  -3861.920972    -45.087583
PG11  23692.390768 -11865.995851  -1290.837194   -687.531016
PG12     73.192166 -17048.022345 -20659.608679   -514.934920
PG13  13229.143821 -15723.197358  16485.042307    658.612516
PG14  23231.335950  13108.531081   -454.690059    427.806701
PG15   4102.088374 -23471.397655  11032.126201    171.248064
PG16 -16515.745731   5592.986691  19827.867790   -261.528915
PG17  12885.127857  12008.794598 -19411.853004    693.049604
PG18  -9678.329019 -11562.879273  21888.138869   -626.177898
PG19  14976.724001   2473.070368 -21980.315830    497.838799
PG20  20587.686411  -5015.790729  15986.003266    373.732396
PG21 -13956.760371  19239.358237 -10272.034397    114.806386
PG22  23360.746787   8790.155973  -8221.336126    -28.568304
PG23 -19949.530352 -15982.034618   7615.076175    252.713593
PG24  10479.015259 -20353.831579 -13533.501128   -478.344944
PG25 -10969.432815 -18629.699386 -15936.916552    497.473640
PG26 -24409.326685  -2380.430619  10493.420077    135.317125
PG27 -12791.174182  12953.283048  18897.411322    -28.552109
PG28 -21455.188023    946.559036 -15637.112002   -293.234370
PG29  -3924.339970 -25034.204677   7694.446028   -593.769062
PG30  18949.491038   4359.418302  18355.427024   -372.630120
PG31 -24476.989923   8978.372980  -6282.418835   -227.336377
PG32 -14346.127092  -9344.307366 -20144.459952   -615.905539
PR01  12581.576282  21507.183059   5505.567416     88.703039
PR02  13553.422769   9164.149046  19592.542936    -23.327775
PR03   7717.956994  -9022.742757  22630.786449    102.261867
PR04  -2131.598780 -21649.041599  13360.296458    241.557720
PR05 -10777.195907 -22921.137511  -3101.560004    133.243165
PR07  -7337.150501   9655.629753 -22392.292235     84.776103
PR08   2458.671774  21754.555627 -13003.800239     -5.075892
PR09 -25173.776600  -3320.326017  -1879.022650    192.773096
PR11  -5769.076501  10174.541695  22680.044729     21.097804
PR12  15068.793662  10429.819218  17767.687422     41.433005
PR13  24617.179678   4910.875700   4524.974892    -48.436444
PR14  20453.711512  -4753.299051 -14481.721962     26.605253
PR15   4093.786520 -10568.207498 -22828.497185     78.715459
PR16 -14922.208208 -10273.017095 -17924.191261     26.576465
PR17  17433.314616 -17080.384067  -7339.548766     96.730825
PR18  11300.551226 -20975.715318   9181.265650    147.516686
PR19   1068.799170 -15366.983546  20322.476883   -280.690950
PR20 -14047.574749   1950.104431  21193.528375   -114.682050
PR21 -17615.715266  16819.220027   7624.357457   -110.095234
PR22 -10959.671414  20660.225744 -10151.164542    101.446749
PR24  14555.539519  -2828.987377 -20739.650250    -60.246948
PR25 -18152.243106  16515.402139   7001.322514    -63.341993
PR26   1780.223168  21156.522701 -14136.675980     -6.094410
EOF
